NORAD_CAT_ID,OBJECT_NAME,OBJECT_TYPE,EPOCH,MEAN_MOTION,ECCENTRICITY,INCLINATION,RA_OF_ASC_NODE,ARG_OF_PERICENTER,MEAN_ANOMALY,BSTAR,MEAN_MOTION_DOT,MEAN_MOTION_DDOT,TLE_LINE0,TLE_LINE1,TLE_LINE2,SEMIMAJOR_AXIS,PERIOD,APOGEE,PERIGEE,DECAYED
55930.0,STARLINK-5896,PAYLOAD,2024-07-02 21:51:37,14.98333517,0.0002808,70.0017,34.4817,267.1819,92.9019,1.9777e-05,1.43e-06,0.0,0 STARLINK-5896,1 55930U 23037S   24184.91084492  .00000143  00000-0  19777-4 0  9996,2 55930  70.0017  34.4817 0002808 267.1819  92.9019 14.98333517 71897,6950.182,96.107,573.999,570.095,0.0
55930.0,STARLINK-5896,PAYLOAD,2024-07-03 20:17:29,14.98332741,0.0002975,69.9999,32.1232,267.1684,92.9135,6.6532e-05,7.01e-06,0.0,0 STARLINK-5896,1 55930U 23037S   24185.84548453  .00000701  00000-0  66532-4 0  9992,2 55930  69.9999  32.1232 0002975 267.1684  92.9135 14.98332741 72375,6950.184,96.107,574.117,569.982,0.0
55930.0,STARLINK-5896,PAYLOAD,2024-07-03 21:53:37,14.98331286,0.0002994,69.9999,31.9551,265.3518,94.7299,6.359e-05,6.66e-06,0.0,0 STARLINK-5896,1 55930U 23037S   24185.91224526  .00000666  00000-0  63590-4 0  9993,2 55930  69.9999  31.9551 0002994 265.3518  94.7299 14.98331286 72041,6950.189,96.107,574.135,569.973,0.0
55930.0,STARLINK-5896,PAYLOAD,2024-07-04 13:54:58,14.98328675,0.0003035,69.9999,30.2718,270.3617,89.7194,9.0443e-05,9.86e-06,0.0,0 STARLINK-5896,1 55930U 23037S   24186.57984533  .00000986  00000-0  90443-4 0  9999,2 55930  69.9999  30.2718 0003035 270.3617  89.7194 14.98328675 72148,6950.197,96.107,574.171,569.953,0.0
55930.0,STARLINK-5896,PAYLOAD,2024-07-04 20:19:30,14.98332747,0.0003059,69.9999,29.5984,270.1875,89.8933,9.3518e-05,1.023e-05,0.0,0 STARLINK-5896,1 55930U 23037S   24186.84688294  .00001023  00000-0  93518-4 0  9993,2 55930  69.9999  29.5984 0003059 270.1875  89.8933 14.98332747 72523,6950.184,96.107,574.175,569.923,0.0
55930.0,STARLINK-5896,PAYLOAD,2024-07-04 21:55:38,14.98333013,0.0003057,69.9999,29.4301,270.2018,89.8791,9.4285e-05,1.032e-05,0.0,0 STARLINK-5896,1 55930U 23037S   24186.91364264  .00001032  00000-0  94285-4 0  9991,2 55930  69.9999  29.4301 0003057 270.2018  89.8791 14.98333013 72195,6950.184,96.107,574.173,569.924,0.0
55930.0,STARLINK-5896,PAYLOAD,2024-07-05 13:56:59,14.98334231,0.0003058,69.9999,27.7468,270.2614,89.8195,0.00013027,1.462e-05,0.0,0 STARLINK-5896,1 55930U 23037S   24187.58123993  .00001462  00000-0  13027-3 0  9998,2 55930  69.9999  27.7468 0003058 270.2614  89.8195 14.98334231 72295,6950.18,96.107,574.17,569.919,0.0
55930.0,STARLINK-5896,PAYLOAD,2024-07-05 20:21:31,14.98338178,0.0003061,69.9999,27.0738,270.2371,89.8437,0.00015574,1.766e-05,0.0,0 STARLINK-5896,1 55930U 23037S   24187.84827666  .00001766  00000-0  15574-3 0  9991,2 55930  69.9999  27.0738 0003061 270.2371  89.8437 14.98338178 72677,6950.168,96.106,574.16,569.905,0.0
55930.0,STARLINK-5896,PAYLOAD,2024-07-05 21:57:39,14.98339058,0.0003054,69.9999,26.9054,270.004,90.0769,0.00016692,1.9e-05,0.0,0 STARLINK-5896,1 55930U 23037S   24187.91503571  .00001900  00000-0  16692-3 0  9997,2 55930  69.9999  26.9054 0003054 270.0040  90.0769 14.98339058 72343,6950.165,96.106,574.152,569.907,0.0
55930.0,STARLINK-5896,PAYLOAD,2024-07-06 12:22:52,14.98329642,0.0002947,70.0004,25.3911,269.9818,90.1004,6.1601e-05,6.42e-06,0.0,0 STARLINK-5896,1 55930U 23037S   24188.51588202  .00000642  00000-0  61601-4 0  9991,2 55930  70.0004  25.3911 0002947 269.9818  90.1004 14.98329642 72776,6950.194,96.107,574.107,570.011,0.0
55930.0,STARLINK-5896,PAYLOAD,2024-07-06 13:59:00,14.98327832,0.0003004,70.0002,25.2226,269.5382,90.5433,3.3045e-05,3.01e-06,0.0,0 STARLINK-5896,1 55930U 23037S   24188.58264350  .00000301  00000-0  33045-4 0  9996,2 55930  70.0002  25.2226 0003004 269.5382  90.5433 14.98327832 72442,6950.2,96.107,574.152,569.977,0.0
55930.0,STARLINK-5896,PAYLOAD,2024-07-06 21:59:40,14.9832849,0.0002934,70.0002,24.381,268.6358,91.4465,7.1056e-06,-8e-08,0.0,0 STARLINK-5896,1 55930U 23037S   24188.91644355 -.00000008  00000-0  71056-5 0  9990,2 55930  70.0002  24.3810 0002934 268.6358  91.4465 14.98328490 72496,6950.198,96.107,574.102,570.023,0.0
55930.0,STARLINK-5896,PAYLOAD,2024-07-07 14:01:01,14.98331888,0.0002897,70.0004,22.6979,268.4977,91.585,1.3353e-05,6.6e-07,0.0,0 STARLINK-5896,1 55930U 23037S   24189.58404076  .00000066  00000-0  13353-4 0  9996,2 55930  70.0004  22.6979 0002897 268.4977  91.5850 14.98331888 72593,6950.187,96.107,574.066,570.039,0.0
55930.0,STARLINK-5896,PAYLOAD,2024-07-07 20:25:33,14.98332219,0.000291,70.0005,22.0246,268.1705,91.9121,-1.7689e-05,-3.04e-06,0.0,0 STARLINK-5896,1 55930U 23037S   24189.85108099 -.00000304  00000-0 -17689-4 0  9995,2 55930  70.0005  22.0246 0002910 268.1705  91.9121 14.98332219 72973,6950.186,96.107,574.074,570.029,0.0
55930.0,STARLINK-5896,PAYLOAD,2024-07-08 14:03:02,14.98326954,0.0002965,70.0004,20.1729,269.3269,90.7551,5.801e-05,5.99e-06,0.0,0 STARLINK-5896,1 55930U 23037S   24190.58544243  .00000599  00000-0  58010-4 0  9999,2 55930  70.0004  20.1729 0002965 269.3269  90.7551 14.98326954 72743,6950.202,96.107,574.128,570.007,0.0
55930.0,STARLINK-5896,PAYLOAD,2024-07-08 20:27:34,14.98327588,0.000298,70.0004,19.4995,268.3313,91.7504,6.2248e-05,6.5e-06,0.0,0 STARLINK-5896,1 55930U 23037S   24190.85248254  .00000650  00000-0  62248-4 0  9998,2 55930  70.0004  19.4995 0002980 268.3313  91.7504 14.98327588 73121,6950.2,96.107,574.137,569.994,0.0
55930.0,STARLINK-5896,PAYLOAD,2024-07-08 22:03:42,14.98328272,0.0002973,70.0004,19.3312,268.4522,91.6297,6.903e-05,7.31e-06,0.0,0 STARLINK-5896,1 55930U 23037S   24190.91924207  .00000731  00000-0  69030-4 0  9990,2 55930  70.0004  19.3312 0002973 268.4522  91.6297 14.98328272 72799,6950.198,96.107,574.13,569.997,0.0
55930.0,STARLINK-5896,PAYLOAD,2024-07-09 14:05:03,14.98330282,0.0003167,70.0,17.6474,270.8251,89.2545,3.2668e-05,2.97e-06,0.0,0 STARLINK-5896,1 55930U 23037S   24191.58684190  .00000297  00000-0  32668-4 0  9992,2 55930  70.0000  17.6474 0003167 270.8251  89.2545 14.98330282 72891,6950.192,96.107,574.258,569.856,0.0
55930.0,STARLINK-5896,PAYLOAD,2024-07-09 20:29:35,14.98332305,0.000315,70.0001,16.9741,270.7006,89.3792,5.5342e-05,5.67e-06,0.0,0 STARLINK-5896,1 55930U 23037S   24191.85388004  .00000567  00000-0  55342-4 0  9991,2 55930  70.0001  16.9741 0003150 270.7006  89.3792 14.98332305 73276,6950.186,96.107,574.24,569.861,0.0
55930.0,STARLINK-5896,PAYLOAD,2024-07-09 22:05:43,14.9833343,0.000314,70.0001,16.8057,270.6919,89.388,6.7926e-05,7.18e-06,0.0,0 STARLINK-5896,1 55930U 23037S   24191.92063896  .00000718  00000-0  67926-4 0  9997,2 55930  70.0001  16.8057 0003140 270.6919  89.3880 14.98333430 72947,6950.182,96.107,574.23,569.865,0.0
55930.0,STARLINK-5896,PAYLOAD,2024-07-10 06:06:23,14.98329508,0.0003142,70.0001,15.964,270.7076,89.3723,4.8886e-05,4.9e-06,0.0,0 STARLINK-5896,1 55930U 23037S   24192.25444175  .00000490  00000-0  48886-4 0  9998,2 55930  70.0001  15.9640 0003142 270.7076  89.3723 14.98329508 72994,6950.194,96.107,574.243,569.876,0.0
55930.0,STARLINK-5896,PAYLOAD,2024-07-10 20:31:36,14.98330798,0.0003158,70.0001,14.4491,270.6938,89.3859,4.2026e-05,4.08e-06,0.0,0 STARLINK-5896,1 55930U 23037S   24192.85528118  .00000408  00000-0  42026-4 0  9993,2 55930  70.0001  14.4491 0003158 270.6938  89.3859 14.98330798 73427,6950.19,96.107,574.25,569.861,0.0
55930.0,STARLINK-5896,PAYLOAD,2024-07-10 22:07:44,14.98332579,0.0003142,70.0002,14.2807,270.5343,89.5456,6.1114e-05,6.36e-06,0.0,0 STARLINK-5896,1 55930U 23037S   24192.92203958  .00000636  00000-0  61114-4 0  9995,2 55930  70.0002  14.2807 0003142 270.5343  89.5456 14.98332579 73096,6950.185,96.107,574.234,569.866,0.0
55930.0,STARLINK-5896,PAYLOAD,2024-07-11 14:09:04,14.98336128,0.0003047,70.0007,12.5977,271.8671,88.2139,8.8542e-05,9.64e-06,0.0,0 STARLINK-5896,1 55930U 23037S   24193.58963587  .00000964  00000-0  88542-4 0  9997,2 55930  70.0007  12.5977 0003047 271.8671  88.2139 14.98336128 73191,6950.174,96.107,574.157,569.921,0.0
55930.0,STARLINK-5896,PAYLOAD,2024-07-11 18:57:28,14.98338317,0.0003027,70.0006,12.0924,270.4897,89.5915,0.00010366,1.144e-05,0.0,0 STARLINK-5896,1 55930U 23037S   24193.78991332  .00001144  00000-0  10366-3 0  9997,2 55930  70.0006  12.0924 0003027 270.4897  89.5915 14.98338317 73569,6950.167,96.106,574.136,569.928,0.0
55930.0,STARLINK-5896,PAYLOAD,2024-07-12 04:34:17,14.98331739,0.0002893,70.0011,11.0824,271.4121,88.6706,4.1152e-05,3.98e-06,0.0,0 STARLINK-5896,1 55930U 23037S   24194.19047838  .00000398  00000-0  41152-4 0  9994,2 55930  70.0011  11.0824 0002893 271.4121  88.6706 14.98331739 73620,6950.188,96.107,574.063,570.042,0.0
55930.0,STARLINK-5896,PAYLOAD,2024-07-12 14:11:05,14.98329922,0.0002877,70.0009,10.0726,270.9334,89.1496,1.7175e-05,1.12e-06,0.0,0 STARLINK-5896,1 55930U 23037S   24194.59104016  .00000112  00000-0  17175-4 0  9992,2 55930  70.0009  10.0726 0002877 270.9334  89.1496 14.98329922 73341,6950.193,96.107,574.058,570.059,0.0
55930.0,STARLINK-5896,PAYLOAD,2024-07-12 22:11:46,14.9833145,0.0002979,70.0009,9.2322,266.746,93.3358,8.3179e-06,6e-08,0.0,0 STARLINK-5896,1 55930U 23037S   24194.92483859  .00000006  00000-0  83179-5 0  9994,2 55930  70.0009   9.2322 0002979 266.7460  93.3358 14.98331450 73397,6950.188,96.107,574.124,569.983,0.0
55930.0,STARLINK-5896,PAYLOAD,2024-07-13 04:36:18,14.98331036,0.000288,70.0011,8.5579,269.7613,90.3216,-1.941e-06,-1.16e-06,0.0,0 STARLINK-5896,1 55930U 23037S   24195.19187948 -.00000116  00000-0 -19410-5 0  9995,2 55930  70.0011   8.5579 0002880 269.7613  90.3216 14.98331036 73772,6950.19,96.107,574.056,570.053,0.0
55930.0,STARLINK-5896,PAYLOAD,2024-07-13 14:13:06,14.98332762,0.0002973,70.0009,7.5486,266.188,93.8939,-9.7007e-06,-2.09e-06,0.0,0 STARLINK-5896,1 55930U 23037S   24195.59243776 -.00000209  00000-0 -97007-5 0  9992,2 55930  70.0009   7.5486 0002973 266.1880  93.8939 14.98332762 73491,6950.184,96.107,574.116,569.983,0.0
